[{"OBJECT_NAME":"FLOCK 4G-7","OBJECT_ID":"2025-009R","EPOCH":"2026-03-09T19:11:56.638176","MEAN_MOTION":15.27141471,"ECCENTRICITY":0.00013963,"INCLINATION":97.3984,"RA_OF_ASC_NODE":150.827,"ARG_OF_PERICENTER":336.9783,"MEAN_ANOMALY":23.1393,"EPHEMERIS_TYPE":0,"CLASSIFICATION_TYPE":"U","NORAD_CAT_ID":62624,"ELEMENT_SET_NO":999,"REV_AT_EPOCH":6372,"BSTAR":0.0004316781,"MEAN_MOTION_DOT":0.00011422,"MEAN_MOTION_DDOT":0},{"OBJECT_NAME":"STARLINK-35446","OBJECT_ID":"2025-259L","EPOCH":"2026-03-09T22:45:45.286848","MEAN_MOTION":15.27602924,"ECCENTRICITY":0.00020187,"INCLINATION":43.0062,"RA_OF_ASC_NODE":272.6467,"ARG_OF_PERICENTER":282.9633,"MEAN_ANOMALY":77.0994,"EPHEMERIS_TYPE":0,"CLASSIFICATION_TYPE":"U","NORAD_CAT_ID":66432,"ELEMENT_SET_NO":999,"REV_AT_EPOCH":1953,"BSTAR":0.00084947857,"MEAN_MOTION_DOT":0.00023204,"MEAN_MOTION_DDOT":0}]
